<?xml version="1.0" encoding="UTF-8"?>
<kml xmlns="http://www.opengis.net/kml/2.2">
  <Document id="root_doc">
    <Schema id="Distrito_ITAKYRY.schema">
      <SimpleField name="Cédula" type="double"/>
      <SimpleField name="cedula" type="string"/>
      <SimpleField name="Cédula_1" type="double"/>
      <SimpleField name="N_" type="double"/>
      <SimpleField name="Nombres_y_" type="string"/>
      <SimpleField name="Sexo" type="string"/>
      <SimpleField name="Cambio_de_" type="string"/>
      <SimpleField name="Titular_se" type="string"/>
      <SimpleField name="Cédula_Ti" type="string"/>
      <SimpleField name="Situación" type="string"/>
      <SimpleField name="Comunidad" type="string"/>
      <SimpleField name="Modelo" type="string"/>
      <SimpleField name="Departamen" type="string"/>
      <SimpleField name="Distrito" type="string"/>
      <SimpleField name="Localidad" type="string"/>
      <SimpleField name="Teléfono" type="string"/>
      <SimpleField name="Vivienda_L" type="double"/>
      <SimpleField name="Vivienda_1" type="double"/>
      <SimpleField name="Superficie" type="double"/>
      <SimpleField name="Situaci_1" type="string"/>
      <SimpleField name="Plantado" type="string"/>
      <SimpleField name="Parcela_La" type="double"/>
      <SimpleField name="Parcela_Lo" type="double"/>
      <SimpleField name="Grupo_Impl" type="string"/>
      <SimpleField name="Grupo_de_P" type="string"/>
      <SimpleField name="Jornales" type="double"/>
      <SimpleField name="Monto" type="double"/>
      <SimpleField name="ETAPA_FAO" type="string"/>
      <SimpleField name="Estado_del" type="string"/>
      <SimpleField name="Empresa" type="string"/>
      <SimpleField name="Lote" type="string"/>
      <SimpleField name="Monitorear" type="string"/>
      <SimpleField name="Fecha_de_M" type="string"/>
      <SimpleField name="F__de_pren" type="string"/>
      <SimpleField name="Estado_FAO" type="string"/>
      <SimpleField name="Etapa_de_i" type="string"/>
      <SimpleField name="Fecha_visi" type="string"/>
      <SimpleField name="Cumple_sup" type="string"/>
      <SimpleField name="Estado_mon" type="string"/>
      <SimpleField name="Situaci_12" type="string"/>
      <SimpleField name="Observaci" type="string"/>
      <SimpleField name="Dias_trans" type="double"/>
      <SimpleField name="Prioridad" type="string"/>
      <SimpleField name="OBJECTID_1" type="int"/>
    </Schema>
    <Document id="Distrito_ITAKYRY">
      <name>Distrito_ITAKYRY</name>
      <Placemark id="Distrito_ITAKYRY.1">
        <ExtendedData>
          <SchemaData schemaUrl="#Distrito_ITAKYRY.schema">
            <SimpleData name="Cédula">5821020.00000000000</SimpleData>
            <SimpleData name="cedula">5821020</SimpleData>
            <SimpleData name="Cédula_1">5821020.00000000000</SimpleData>
            <SimpleData name="N_">74.00000000000</SimpleData>
            <SimpleData name="Nombres_y_">LIZ VIDALIA PRIETO BARRETO</SimpleData>
            <SimpleData name="Sexo">Mujer</SimpleData>
            <SimpleData name="Cambio_de_">NO</SimpleData>
            <SimpleData name="Titular_se">NO</SimpleData>
            <SimpleData name="Cédula_Ti">NO</SimpleData>
            <SimpleData name="Situación">NO</SimpleData>
            <SimpleData name="Comunidad">Ind?gena</SimpleData>
            <SimpleData name="Modelo">Modelo 1</SimpleData>
            <SimpleData name="Departamen">ALTO PARANA</SimpleData>
            <SimpleData name="Distrito">ITAKYRY</SimpleData>
            <SimpleData name="Localidad">COM INDIG ARROYO GUAZU ? CENTRO</SimpleData>
            <SimpleData name="Teléfono">986463157</SimpleData>
            <SimpleData name="Vivienda_L">-24.62359320000</SimpleData>
            <SimpleData name="Vivienda_1">-54.98680440000</SimpleData>
            <SimpleData name="Superficie">0.80000000000</SimpleData>
            <SimpleData name="Situaci_1">Par?metro</SimpleData>
            <SimpleData name="Plantado">Si</SimpleData>
            <SimpleData name="Parcela_La">-24.62234361000</SimpleData>
            <SimpleData name="Parcela_Lo">-54.98751581000</SimpleData>
            <SimpleData name="Grupo_Impl">G2</SimpleData>
            <SimpleData name="Grupo_de_P">F-P4-XX-XX-XX</SimpleData>
            <SimpleData name="Jornales">0.00000000000</SimpleData>
            <SimpleData name="Monto">0.00000000000</SimpleData>
            <SimpleData name="ETAPA_FAO">Mantenimiento A?o 1.1</SimpleData>
            <SimpleData name="Estado_del">Activo</SimpleData>
            <SimpleData name="Empresa">Red Forestal Paraguay SA</SimpleData>
            <SimpleData name="Lote">F</SimpleData>
            <SimpleData name="Monitorear">No</SimpleData>
            <SimpleData name="Fecha_de_M">-</SimpleData>
            <SimpleData name="F__de_pren">-</SimpleData>
            <SimpleData name="Estado_FAO">Monitorear</SimpleData>
            <SimpleData name="Etapa_de_i">Mantenimiento A?o 1.1</SimpleData>
            <SimpleData name="Fecha_visi">2026/09/28</SimpleData>
            <SimpleData name="Cumple_sup">Si</SimpleData>
            <SimpleData name="Estado_mon">-</SimpleData>
            <SimpleData name="Situaci_12">-</SimpleData>
            <SimpleData name="Observaci">-</SimpleData>
            <SimpleData name="Dias_trans">6.37994212963</SimpleData>
            <SimpleData name="Prioridad">ALTA</SimpleData>
            <SimpleData name="OBJECTID_1">74</SimpleData>
          </SchemaData>
        </ExtendedData>
        <Polygon>
          <outerBoundaryIs>
            <LinearRing>
              <coordinates>
                -54.986986699699,-24.6219499999736,0
                -54.9866961999318,-24.6222969994769,0
                -54.9870352001095,-24.6225032993138,0
                -54.987190000164,-24.622618300363,0
                -54.9873883002476,-24.6227067005191,0
                -54.9876166997786,-24.6226850001047,0
                -54.9876616992081,-24.6223966999994,0
                -54.9878650002701,-24.6224000000677,0
                -54.9878232999936,-24.6226782999768,0
                -54.9881382994282,-24.6227050004904,0
                -54.988291699568,-24.6220932998504,0
                -54.988013300415,-24.6220649994827,0
                -54.9879766004048,-24.6221749998655,0
                -54.9875999995588,-24.6221632996941,0
                -54.986986699699,-24.6219499999736,0
              </coordinates>
            </LinearRing>
          </outerBoundaryIs>
        </Polygon>
      </Placemark>
      <Placemark id="Distrito_ITAKYRY.2">
        <ExtendedData>
          <SchemaData schemaUrl="#Distrito_ITAKYRY.schema">
            <SimpleData name="Cédula">5905545.00000000000</SimpleData>
            <SimpleData name="cedula">5905545</SimpleData>
            <SimpleData name="Cédula_1">5905545.00000000000</SimpleData>
            <SimpleData name="N_">68.00000000000</SimpleData>
            <SimpleData name="Nombres_y_">NELIDA ROMERO LARREA</SimpleData>
            <SimpleData name="Sexo">Mujer</SimpleData>
            <SimpleData name="Cambio_de_">NO</SimpleData>
            <SimpleData name="Titular_se">NO</SimpleData>
            <SimpleData name="Cédula_Ti">NO</SimpleData>
            <SimpleData name="Situación">NO</SimpleData>
            <SimpleData name="Comunidad">Ind?gena</SimpleData>
            <SimpleData name="Modelo">Modelo 1</SimpleData>
            <SimpleData name="Departamen">ALTO PARANA</SimpleData>
            <SimpleData name="Distrito">ITAKYRY</SimpleData>
            <SimpleData name="Localidad">COM INDIG ARROYO GUAZU ? CENTRO</SimpleData>
            <SimpleData name="Teléfono">0982390374</SimpleData>
            <SimpleData name="Vivienda_L">-24.62345930000</SimpleData>
            <SimpleData name="Vivienda_1">-54.98767840000</SimpleData>
            <SimpleData name="Superficie">0.80000000000</SimpleData>
            <SimpleData name="Situaci_1">Par?metro</SimpleData>
            <SimpleData name="Plantado">Si</SimpleData>
            <SimpleData name="Parcela_La">-24.62554866000</SimpleData>
            <SimpleData name="Parcela_Lo">-54.98618354000</SimpleData>
            <SimpleData name="Grupo_Impl">G2</SimpleData>
            <SimpleData name="Grupo_de_P">F-P4-XX-XX-XX</SimpleData>
            <SimpleData name="Jornales">0.00000000000</SimpleData>
            <SimpleData name="Monto">0.00000000000</SimpleData>
            <SimpleData name="ETAPA_FAO">Mantenimiento A?o 1.1</SimpleData>
            <SimpleData name="Estado_del">Activo</SimpleData>
            <SimpleData name="Empresa">Red Forestal Paraguay SA</SimpleData>
            <SimpleData name="Lote">F</SimpleData>
            <SimpleData name="Monitorear">No</SimpleData>
            <SimpleData name="Fecha_de_M">-</SimpleData>
            <SimpleData name="F__de_pren">-</SimpleData>
            <SimpleData name="Estado_FAO">Monitorear</SimpleData>
            <SimpleData name="Etapa_de_i">Mantenimiento A?o 1.1</SimpleData>
            <SimpleData name="Fecha_visi">2026/09/28</SimpleData>
            <SimpleData name="Cumple_sup">Si</SimpleData>
            <SimpleData name="Estado_mon">-</SimpleData>
            <SimpleData name="Situaci_12">-</SimpleData>
            <SimpleData name="Observaci">-</SimpleData>
            <SimpleData name="Dias_trans">6.37997685185</SimpleData>
            <SimpleData name="Prioridad">ALTA</SimpleData>
            <SimpleData name="OBJECTID_1">68</SimpleData>
          </SchemaData>
        </ExtendedData>
        <Polygon>
          <outerBoundaryIs>
            <LinearRing>
              <coordinates>
                -54.9855636737838,-24.625306202968,0
                -54.9855737306905,-24.6254378946242,0
                -54.9856515998804,-24.6260998993462,0
                -54.9869585995191,-24.62555470033,0
                -54.9867050000983,-24.6250699996957,0
                -54.9862783007495,-24.6252400007658,0
                -54.9855636737838,-24.625306202968,0
              </coordinates>
            </LinearRing>
          </outerBoundaryIs>
        </Polygon>
      </Placemark>
      <Placemark id="Distrito_ITAKYRY.3">
        <ExtendedData>
          <SchemaData schemaUrl="#Distrito_ITAKYRY.schema">
            <SimpleData name="Cédula">8166333.00000000000</SimpleData>
            <SimpleData name="cedula">8166333</SimpleData>
            <SimpleData name="Cédula_1">8166333.00000000000</SimpleData>
            <SimpleData name="N_">49.00000000000</SimpleData>
            <SimpleData name="Nombres_y_">MARIA MABEL PARODI GOMEZ</SimpleData>
            <SimpleData name="Sexo">Mujer</SimpleData>
            <SimpleData name="Cambio_de_">NO</SimpleData>
            <SimpleData name="Titular_se">NO</SimpleData>
            <SimpleData name="Cédula_Ti">NO</SimpleData>
            <SimpleData name="Situación">NO</SimpleData>
            <SimpleData name="Comunidad">Ind?gena</SimpleData>
            <SimpleData name="Modelo">Modelo 1</SimpleData>
            <SimpleData name="Departamen">ALTO PARANA</SimpleData>
            <SimpleData name="Distrito">ITAKYRY</SimpleData>
            <SimpleData name="Localidad">COM INDIG ARROYO GUAZU ? CENTRO</SimpleData>
            <SimpleData name="Teléfono">No tiene</SimpleData>
            <SimpleData name="Vivienda_L">-24.61820700000</SimpleData>
            <SimpleData name="Vivienda_1">-54.98978690000</SimpleData>
            <SimpleData name="Superficie">0.80000000000</SimpleData>
            <SimpleData name="Situaci_1">Par?metro</SimpleData>
            <SimpleData name="Plantado">Si</SimpleData>
            <SimpleData name="Parcela_La">-24.61843757000</SimpleData>
            <SimpleData name="Parcela_Lo">-54.98920049000</SimpleData>
            <SimpleData name="Grupo_Impl">G2</SimpleData>
            <SimpleData name="Grupo_de_P">F-P4-XX-XX-XX</SimpleData>
            <SimpleData name="Jornales">0.00000000000</SimpleData>
            <SimpleData name="Monto">0.00000000000</SimpleData>
            <SimpleData name="ETAPA_FAO">Mantenimiento A?o 1.1</SimpleData>
            <SimpleData name="Estado_del">Activo</SimpleData>
            <SimpleData name="Empresa">Red Forestal Paraguay SA</SimpleData>
            <SimpleData name="Lote">F</SimpleData>
            <SimpleData name="Monitorear">No</SimpleData>
            <SimpleData name="Fecha_de_M">-</SimpleData>
            <SimpleData name="F__de_pren">-</SimpleData>
            <SimpleData name="Estado_FAO">Monitorear</SimpleData>
            <SimpleData name="Etapa_de_i">Mantenimiento A?o 1.1</SimpleData>
            <SimpleData name="Fecha_visi">2026/09/28</SimpleData>
            <SimpleData name="Cumple_sup">Si</SimpleData>
            <SimpleData name="Estado_mon">-</SimpleData>
            <SimpleData name="Situaci_12">-</SimpleData>
            <SimpleData name="Observaci">-</SimpleData>
            <SimpleData name="Dias_trans">6.38043981481</SimpleData>
            <SimpleData name="Prioridad">ALTA</SimpleData>
            <SimpleData name="OBJECTID_1">49</SimpleData>
          </SchemaData>
        </ExtendedData>
        <Polygon>
          <outerBoundaryIs>
            <LinearRing>
              <coordinates>
                -54.9887067006423,-24.6187616995579,0
                -54.9895249998443,-24.6190232997588,0
                -54.9898399997017,-24.6184966998355,0
                -54.9894079001807,-24.6183003998666,0
                -54.989516699392,-24.6179633000495,0
                -54.9890550003275,-24.6177583005251,0
                -54.9886982992105,-24.6182999999657,0
                -54.9887067006423,-24.6187616995579,0
              </coordinates>
            </LinearRing>
          </outerBoundaryIs>
        </Polygon>
      </Placemark>
      <Placemark id="Distrito_ITAKYRY.4">
        <ExtendedData>
          <SchemaData schemaUrl="#Distrito_ITAKYRY.schema">
            <SimpleData name="Cédula">4388395.00000000000</SimpleData>
            <SimpleData name="cedula">4388395</SimpleData>
            <SimpleData name="Cédula_1">4388395.00000000000</SimpleData>
            <SimpleData name="N_">67.00000000000</SimpleData>
            <SimpleData name="Nombres_y_">DORA ROMERO LARREA</SimpleData>
            <SimpleData name="Sexo">Mujer</SimpleData>
            <SimpleData name="Cambio_de_">NO</SimpleData>
            <SimpleData name="Titular_se">NO</SimpleData>
            <SimpleData name="Cédula_Ti">NO</SimpleData>
            <SimpleData name="Situación">NO</SimpleData>
            <SimpleData name="Comunidad">Ind?gena</SimpleData>
            <SimpleData name="Modelo">Modelo 5</SimpleData>
            <SimpleData name="Departamen">ALTO PARANA</SimpleData>
            <SimpleData name="Distrito">ITAKYRY</SimpleData>
            <SimpleData name="Localidad">COM INDIG ARROYO GUAZU ? CENTRO</SimpleData>
            <SimpleData name="Teléfono">0984875774</SimpleData>
            <SimpleData name="Vivienda_L">-24.62402740000</SimpleData>
            <SimpleData name="Vivienda_1">-54.98615190000</SimpleData>
            <SimpleData name="Superficie">0.70000000000</SimpleData>
            <SimpleData name="Situaci_1">Par?metro</SimpleData>
            <SimpleData name="Plantado">Si</SimpleData>
            <SimpleData name="Parcela_La">-24.62615217000</SimpleData>
            <SimpleData name="Parcela_Lo">-54.98647663000</SimpleData>
            <SimpleData name="Grupo_Impl">G2</SimpleData>
            <SimpleData name="Grupo_de_P">F-P5-XX-XX-XX</SimpleData>
            <SimpleData name="Jornales">0.00000000000</SimpleData>
            <SimpleData name="Monto">0.00000000000</SimpleData>
            <SimpleData name="ETAPA_FAO">Mantenimiento A?o 1.1</SimpleData>
            <SimpleData name="Estado_del">Activo</SimpleData>
            <SimpleData name="Empresa">Red Forestal Paraguay SA</SimpleData>
            <SimpleData name="Lote">F</SimpleData>
            <SimpleData name="Monitorear">No</SimpleData>
            <SimpleData name="Fecha_de_M">-</SimpleData>
            <SimpleData name="F__de_pren">-</SimpleData>
            <SimpleData name="Estado_FAO">Monitorear</SimpleData>
            <SimpleData name="Etapa_de_i">Mantenimiento A?o 1.1</SimpleData>
            <SimpleData name="Fecha_visi">2026/09/28</SimpleData>
            <SimpleData name="Cumple_sup">Si</SimpleData>
            <SimpleData name="Estado_mon">-</SimpleData>
            <SimpleData name="Situaci_12">-</SimpleData>
            <SimpleData name="Observaci">-</SimpleData>
            <SimpleData name="Dias_trans">6.37996527777</SimpleData>
            <SimpleData name="Prioridad">ALTA</SimpleData>
            <SimpleData name="OBJECTID_1">67</SimpleData>
          </SchemaData>
        </ExtendedData>
        <Polygon>
          <outerBoundaryIs>
            <LinearRing>
              <coordinates>
                -54.9858508697773,-24.6266821314124,0
                -54.9858516998094,-24.6266849998542,0
                -54.985897269534,-24.6266640553411,0
                -54.9872550003266,-24.6260400006524,0
                -54.9870450006996,-24.6256282994852,0
                -54.985728300616,-24.6262582999221,0
                -54.9858508697773,-24.6266821314124,0
              </coordinates>
            </LinearRing>
          </outerBoundaryIs>
        </Polygon>
      </Placemark>
    </Document>
  </Document>
</kml>
