<?xml version="1.0" encoding="UTF-8"?>
<kml xmlns="http://www.opengis.net/kml/2.2">
  <Document id="root_doc">
    <Schema id="Distrito_HORQUETA.schema">
      <SimpleField name="Cédula" type="double"/>
      <SimpleField name="cedula" type="string"/>
      <SimpleField name="Cédula_1" type="double"/>
      <SimpleField name="N_" type="double"/>
      <SimpleField name="Nombres_y_" type="string"/>
      <SimpleField name="Sexo" type="string"/>
      <SimpleField name="Cambio_de_" type="string"/>
      <SimpleField name="Titular_se" type="string"/>
      <SimpleField name="Cédula_Ti" type="string"/>
      <SimpleField name="Situación" type="string"/>
      <SimpleField name="Comunidad" type="string"/>
      <SimpleField name="Modelo" type="string"/>
      <SimpleField name="Departamen" type="string"/>
      <SimpleField name="Distrito" type="string"/>
      <SimpleField name="Localidad" type="string"/>
      <SimpleField name="Teléfono" type="string"/>
      <SimpleField name="Vivienda_L" type="double"/>
      <SimpleField name="Vivienda_1" type="double"/>
      <SimpleField name="Superficie" type="double"/>
      <SimpleField name="Situaci_1" type="string"/>
      <SimpleField name="Plantado" type="string"/>
      <SimpleField name="Parcela_La" type="double"/>
      <SimpleField name="Parcela_Lo" type="double"/>
      <SimpleField name="Grupo_Impl" type="string"/>
      <SimpleField name="Grupo_de_P" type="string"/>
      <SimpleField name="Jornales" type="double"/>
      <SimpleField name="Monto" type="double"/>
      <SimpleField name="ETAPA_FAO" type="string"/>
      <SimpleField name="Estado_del" type="string"/>
      <SimpleField name="Empresa" type="string"/>
      <SimpleField name="Lote" type="string"/>
      <SimpleField name="Monitorear" type="string"/>
      <SimpleField name="Fecha_de_M" type="string"/>
      <SimpleField name="F__de_pren" type="string"/>
      <SimpleField name="Estado_FAO" type="string"/>
      <SimpleField name="Etapa_de_i" type="string"/>
      <SimpleField name="Fecha_visi" type="string"/>
      <SimpleField name="Cumple_sup" type="string"/>
      <SimpleField name="Estado_mon" type="string"/>
      <SimpleField name="Situaci_12" type="string"/>
      <SimpleField name="Observaci" type="string"/>
      <SimpleField name="Dias_trans" type="double"/>
      <SimpleField name="Prioridad" type="string"/>
      <SimpleField name="OBJECTID_1" type="int"/>
    </Schema>
    <Document id="Distrito_HORQUETA">
      <name>Distrito_HORQUETA</name>
      <Placemark id="Distrito_HORQUETA.1">
        <ExtendedData>
          <SchemaData schemaUrl="#Distrito_HORQUETA.schema">
            <SimpleData name="Cédula">1774056.00000000000</SimpleData>
            <SimpleData name="cedula">1774056</SimpleData>
            <SimpleData name="Cédula_1">1774056.00000000000</SimpleData>
            <SimpleData name="N_">188.00000000000</SimpleData>
            <SimpleData name="Nombres_y_">LAZARO HITER SANCHEZ</SimpleData>
            <SimpleData name="Sexo">Hombre</SimpleData>
            <SimpleData name="Cambio_de_">NO</SimpleData>
            <SimpleData name="Titular_se">NO</SimpleData>
            <SimpleData name="Cédula_Ti">NO</SimpleData>
            <SimpleData name="Situación">NO</SimpleData>
            <SimpleData name="Comunidad">Ind?gena</SimpleData>
            <SimpleData name="Modelo">Modelo 2</SimpleData>
            <SimpleData name="Departamen">CONCEPCION</SimpleData>
            <SimpleData name="Distrito">HORQUETA</SimpleData>
            <SimpleData name="Localidad">COM INDIG ?ANDE YVY PAVE</SimpleData>
            <SimpleData name="Teléfono">0986627406</SimpleData>
            <SimpleData name="Vivienda_L">-23.42950500000</SimpleData>
            <SimpleData name="Vivienda_1">-57.13712670000</SimpleData>
            <SimpleData name="Superficie">0.80000000000</SimpleData>
            <SimpleData name="Situaci_1">Par?metro</SimpleData>
            <SimpleData name="Plantado">Si</SimpleData>
            <SimpleData name="Parcela_La">-23.43005112000</SimpleData>
            <SimpleData name="Parcela_Lo">-57.13720348000</SimpleData>
            <SimpleData name="Grupo_Impl">G3</SimpleData>
            <SimpleData name="Grupo_de_P">J-P1-XX-XX-XX</SimpleData>
            <SimpleData name="Jornales">0.00000000000</SimpleData>
            <SimpleData name="Monto">0.00000000000</SimpleData>
            <SimpleData name="ETAPA_FAO">Mantenimiento A?o 1.1</SimpleData>
            <SimpleData name="Estado_del">Activo</SimpleData>
            <SimpleData name="Empresa">Emilio Sol?s Grance</SimpleData>
            <SimpleData name="Lote">J</SimpleData>
            <SimpleData name="Monitorear">No</SimpleData>
            <SimpleData name="Fecha_de_M">-</SimpleData>
            <SimpleData name="F__de_pren">-</SimpleData>
            <SimpleData name="Estado_FAO">Monitorear</SimpleData>
            <SimpleData name="Etapa_de_i">Mantenimiento A?o 1.1</SimpleData>
            <SimpleData name="Fecha_visi">2026/09/24</SimpleData>
            <SimpleData name="Cumple_sup">Si</SimpleData>
            <SimpleData name="Estado_mon">-</SimpleData>
            <SimpleData name="Situaci_12">-</SimpleData>
            <SimpleData name="Observaci">-</SimpleData>
            <SimpleData name="Dias_trans">10.33717592590</SimpleData>
            <SimpleData name="Prioridad">ALTA</SimpleData>
            <SimpleData name="OBJECTID_1">188</SimpleData>
          </SchemaData>
        </ExtendedData>
        <Point>
          <coordinates>
            -57.1372034827339,-23.430051123633,0
          </coordinates>
        </Point>
      </Placemark>
      <Placemark id="Distrito_HORQUETA.2">
        <ExtendedData>
          <SchemaData schemaUrl="#Distrito_HORQUETA.schema">
            <SimpleData name="Cédula">5053186.00000000000</SimpleData>
            <SimpleData name="cedula">5053186</SimpleData>
            <SimpleData name="Cédula_1">5053186.00000000000</SimpleData>
            <SimpleData name="N_">187.00000000000</SimpleData>
            <SimpleData name="Nombres_y_">KATHIA VALIENTE</SimpleData>
            <SimpleData name="Sexo">Mujer</SimpleData>
            <SimpleData name="Cambio_de_">NO</SimpleData>
            <SimpleData name="Titular_se">NO</SimpleData>
            <SimpleData name="Cédula_Ti">NO</SimpleData>
            <SimpleData name="Situación">NO</SimpleData>
            <SimpleData name="Comunidad">Ind?gena</SimpleData>
            <SimpleData name="Modelo">Modelo 2</SimpleData>
            <SimpleData name="Departamen">CONCEPCION</SimpleData>
            <SimpleData name="Distrito">HORQUETA</SimpleData>
            <SimpleData name="Localidad">COM INDIG ?ANDE YVY PAVE</SimpleData>
            <SimpleData name="Teléfono">0983425709</SimpleData>
            <SimpleData name="Vivienda_L">-23.43068670000</SimpleData>
            <SimpleData name="Vivienda_1">-57.13581330000</SimpleData>
            <SimpleData name="Superficie">0.80000000000</SimpleData>
            <SimpleData name="Situaci_1">Par?metro</SimpleData>
            <SimpleData name="Plantado">Si</SimpleData>
            <SimpleData name="Parcela_La">-23.43023144000</SimpleData>
            <SimpleData name="Parcela_Lo">-57.13799952000</SimpleData>
            <SimpleData name="Grupo_Impl">G3</SimpleData>
            <SimpleData name="Grupo_de_P">J-P2-XX-XX-XX</SimpleData>
            <SimpleData name="Jornales">0.00000000000</SimpleData>
            <SimpleData name="Monto">0.00000000000</SimpleData>
            <SimpleData name="ETAPA_FAO">Mantenimiento A?o 1.1</SimpleData>
            <SimpleData name="Estado_del">Activo</SimpleData>
            <SimpleData name="Empresa">Emilio Sol?s Grance</SimpleData>
            <SimpleData name="Lote">J</SimpleData>
            <SimpleData name="Monitorear">No</SimpleData>
            <SimpleData name="Fecha_de_M">-</SimpleData>
            <SimpleData name="F__de_pren">-</SimpleData>
            <SimpleData name="Estado_FAO">Monitorear</SimpleData>
            <SimpleData name="Etapa_de_i">Mantenimiento A?o 1.1</SimpleData>
            <SimpleData name="Fecha_visi">2026/09/24</SimpleData>
            <SimpleData name="Cumple_sup">Si</SimpleData>
            <SimpleData name="Estado_mon">-</SimpleData>
            <SimpleData name="Situaci_12">-</SimpleData>
            <SimpleData name="Observaci">-</SimpleData>
            <SimpleData name="Dias_trans">10.33427083330</SimpleData>
            <SimpleData name="Prioridad">ALTA</SimpleData>
            <SimpleData name="OBJECTID_1">187</SimpleData>
          </SchemaData>
        </ExtendedData>
        <MultiGeometry>
          <Point>
            <coordinates>
              -57.1389224327896,-23.4299943318785,0
            </coordinates>
          </Point>
          <Point>
            <coordinates>
              -57.1379995225738,-23.4302314394818,0
            </coordinates>
          </Point>
        </MultiGeometry>
      </Placemark>
      <Placemark id="Distrito_HORQUETA.3">
        <ExtendedData>
          <SchemaData schemaUrl="#Distrito_HORQUETA.schema">
            <SimpleData name="Cédula">6701060.00000000000</SimpleData>
            <SimpleData name="cedula">6701060</SimpleData>
            <SimpleData name="Cédula_1">6701060.00000000000</SimpleData>
            <SimpleData name="N_">186.00000000000</SimpleData>
            <SimpleData name="Nombres_y_">MARIANA GARCETE OCAMPOS</SimpleData>
            <SimpleData name="Sexo">Mujer</SimpleData>
            <SimpleData name="Cambio_de_">NO</SimpleData>
            <SimpleData name="Titular_se">NO</SimpleData>
            <SimpleData name="Cédula_Ti">NO</SimpleData>
            <SimpleData name="Situación">NO</SimpleData>
            <SimpleData name="Comunidad">Ind?gena</SimpleData>
            <SimpleData name="Modelo">Modelo 5</SimpleData>
            <SimpleData name="Departamen">CONCEPCION</SimpleData>
            <SimpleData name="Distrito">HORQUETA</SimpleData>
            <SimpleData name="Localidad">COM INDIG PASO ITA</SimpleData>
            <SimpleData name="Teléfono">0976456362</SimpleData>
            <SimpleData name="Vivienda_L">-23.40351950000</SimpleData>
            <SimpleData name="Vivienda_1">-56.85432530000</SimpleData>
            <SimpleData name="Superficie">0.70000000000</SimpleData>
            <SimpleData name="Situaci_1">Par?metro</SimpleData>
            <SimpleData name="Plantado">Si</SimpleData>
            <SimpleData name="Parcela_La">-23.42893319000</SimpleData>
            <SimpleData name="Parcela_Lo">-57.13642163000</SimpleData>
            <SimpleData name="Grupo_Impl">G3</SimpleData>
            <SimpleData name="Grupo_de_P">J-P1-XX-XX-XX</SimpleData>
            <SimpleData name="Jornales">0.00000000000</SimpleData>
            <SimpleData name="Monto">0.00000000000</SimpleData>
            <SimpleData name="ETAPA_FAO">Mantenimiento A?o 1.1</SimpleData>
            <SimpleData name="Estado_del">Activo</SimpleData>
            <SimpleData name="Empresa">Emilio Sol?s Grance</SimpleData>
            <SimpleData name="Lote">J</SimpleData>
            <SimpleData name="Monitorear">No</SimpleData>
            <SimpleData name="Fecha_de_M">-</SimpleData>
            <SimpleData name="F__de_pren">-</SimpleData>
            <SimpleData name="Estado_FAO">Monitorear</SimpleData>
            <SimpleData name="Etapa_de_i">Mantenimiento A?o 1.1</SimpleData>
            <SimpleData name="Fecha_visi">2026/09/24</SimpleData>
            <SimpleData name="Cumple_sup">Si</SimpleData>
            <SimpleData name="Estado_mon">-</SimpleData>
            <SimpleData name="Situaci_12">-</SimpleData>
            <SimpleData name="Observaci">-</SimpleData>
            <SimpleData name="Dias_trans">10.28366898150</SimpleData>
            <SimpleData name="Prioridad">ALTA</SimpleData>
            <SimpleData name="OBJECTID_1">186</SimpleData>
          </SchemaData>
        </ExtendedData>
        <Point>
          <coordinates>
            -57.1364216259418,-23.4289331881095,0
          </coordinates>
        </Point>
      </Placemark>
      <Placemark id="Distrito_HORQUETA.4">
        <ExtendedData>
          <SchemaData schemaUrl="#Distrito_HORQUETA.schema">
            <SimpleData name="Cédula">6673545.00000000000</SimpleData>
            <SimpleData name="cedula">6673545</SimpleData>
            <SimpleData name="Cédula_1">6673545.00000000000</SimpleData>
            <SimpleData name="N_">185.00000000000</SimpleData>
            <SimpleData name="Nombres_y_">HERIBERTA GARCETE OCAMPOS</SimpleData>
            <SimpleData name="Sexo">Mujer</SimpleData>
            <SimpleData name="Cambio_de_">SI</SimpleData>
            <SimpleData name="Titular_se">MARIA ZULMA HITTER SANCHEZ</SimpleData>
            <SimpleData name="Cédula_Ti">2202460</SimpleData>
            <SimpleData name="Situación">Migraci?n de la participante de la comunidad</SimpleData>
            <SimpleData name="Comunidad">Ind?gena</SimpleData>
            <SimpleData name="Modelo">Modelo 5</SimpleData>
            <SimpleData name="Departamen">CONCEPCION</SimpleData>
            <SimpleData name="Distrito">HORQUETA</SimpleData>
            <SimpleData name="Localidad">COM INDIG PASO ITA</SimpleData>
            <SimpleData name="Teléfono">0986627406</SimpleData>
            <SimpleData name="Vivienda_L">-23.40582380000</SimpleData>
            <SimpleData name="Vivienda_1">-56.85387120000</SimpleData>
            <SimpleData name="Superficie">0.70000000000</SimpleData>
            <SimpleData name="Situaci_1">Par?metro</SimpleData>
            <SimpleData name="Plantado">Si</SimpleData>
            <SimpleData name="Parcela_La">-23.42991679000</SimpleData>
            <SimpleData name="Parcela_Lo">-57.13619891000</SimpleData>
            <SimpleData name="Grupo_Impl">G3</SimpleData>
            <SimpleData name="Grupo_de_P">J-P1-XX-XX-XX</SimpleData>
            <SimpleData name="Jornales">0.00000000000</SimpleData>
            <SimpleData name="Monto">0.00000000000</SimpleData>
            <SimpleData name="ETAPA_FAO">Mantenimiento A?o 1.1</SimpleData>
            <SimpleData name="Estado_del">Activo</SimpleData>
            <SimpleData name="Empresa">Emilio Sol?s Grance</SimpleData>
            <SimpleData name="Lote">J</SimpleData>
            <SimpleData name="Monitorear">No</SimpleData>
            <SimpleData name="Fecha_de_M">-</SimpleData>
            <SimpleData name="F__de_pren">-</SimpleData>
            <SimpleData name="Estado_FAO">Monitorear</SimpleData>
            <SimpleData name="Etapa_de_i">Mantenimiento A?o 1.1</SimpleData>
            <SimpleData name="Fecha_visi">2026/09/24</SimpleData>
            <SimpleData name="Cumple_sup">Si</SimpleData>
            <SimpleData name="Estado_mon">-</SimpleData>
            <SimpleData name="Situaci_12">-</SimpleData>
            <SimpleData name="Observaci">-</SimpleData>
            <SimpleData name="Dias_trans">10.30944444440</SimpleData>
            <SimpleData name="Prioridad">ALTA</SimpleData>
            <SimpleData name="OBJECTID_1">185</SimpleData>
          </SchemaData>
        </ExtendedData>
        <Point>
          <coordinates>
            -57.1361989144028,-23.4299167896411,0
          </coordinates>
        </Point>
      </Placemark>
      <Placemark id="Distrito_HORQUETA.5">
        <ExtendedData>
          <SchemaData schemaUrl="#Distrito_HORQUETA.schema">
            <SimpleData name="Cédula">6773055.00000000000</SimpleData>
            <SimpleData name="cedula">6773055</SimpleData>
            <SimpleData name="Cédula_1">6773055.00000000000</SimpleData>
            <SimpleData name="N_">191.00000000000</SimpleData>
            <SimpleData name="Nombres_y_">SANDRA BENITEZ ARCE</SimpleData>
            <SimpleData name="Sexo">Mujer</SimpleData>
            <SimpleData name="Cambio_de_">NO</SimpleData>
            <SimpleData name="Titular_se">NO</SimpleData>
            <SimpleData name="Cédula_Ti">NO</SimpleData>
            <SimpleData name="Situación">NO</SimpleData>
            <SimpleData name="Comunidad">Ind?gena</SimpleData>
            <SimpleData name="Modelo">Modelo 1</SimpleData>
            <SimpleData name="Departamen">CONCEPCION</SimpleData>
            <SimpleData name="Distrito">HORQUETA</SimpleData>
            <SimpleData name="Localidad">COM INDIG ?ANDE YVY PAVE</SimpleData>
            <SimpleData name="Teléfono">0986540363</SimpleData>
            <SimpleData name="Vivienda_L">-23.42880370000</SimpleData>
            <SimpleData name="Vivienda_1">-57.13869820000</SimpleData>
            <SimpleData name="Superficie">0.80000000000</SimpleData>
            <SimpleData name="Situaci_1">Par?metro</SimpleData>
            <SimpleData name="Plantado">Si</SimpleData>
            <SimpleData name="Parcela_La">-23.43131895000</SimpleData>
            <SimpleData name="Parcela_Lo">-57.13708439000</SimpleData>
            <SimpleData name="Grupo_Impl">G3</SimpleData>
            <SimpleData name="Grupo_de_P">J-P1-XX-XX-XX</SimpleData>
            <SimpleData name="Jornales">0.00000000000</SimpleData>
            <SimpleData name="Monto">0.00000000000</SimpleData>
            <SimpleData name="ETAPA_FAO">Mantenimiento A?o 1.1</SimpleData>
            <SimpleData name="Estado_del">Activo</SimpleData>
            <SimpleData name="Empresa">Emilio Sol?s Grance</SimpleData>
            <SimpleData name="Lote">J</SimpleData>
            <SimpleData name="Monitorear">No</SimpleData>
            <SimpleData name="Fecha_de_M">-</SimpleData>
            <SimpleData name="F__de_pren">-</SimpleData>
            <SimpleData name="Estado_FAO">Monitorear</SimpleData>
            <SimpleData name="Etapa_de_i">Mantenimiento A?o 1.1</SimpleData>
            <SimpleData name="Fecha_visi">2026/09/24</SimpleData>
            <SimpleData name="Cumple_sup">Si</SimpleData>
            <SimpleData name="Estado_mon">-</SimpleData>
            <SimpleData name="Situaci_12">-</SimpleData>
            <SimpleData name="Observaci">-</SimpleData>
            <SimpleData name="Dias_trans">10.32120370370</SimpleData>
            <SimpleData name="Prioridad">ALTA</SimpleData>
            <SimpleData name="OBJECTID_1">191</SimpleData>
          </SchemaData>
        </ExtendedData>
        <Point>
          <coordinates>
            -57.1370843868356,-23.4313189487399,0
          </coordinates>
        </Point>
      </Placemark>
      <Placemark id="Distrito_HORQUETA.6">
        <ExtendedData>
          <SchemaData schemaUrl="#Distrito_HORQUETA.schema">
            <SimpleData name="Cédula">6732331.00000000000</SimpleData>
            <SimpleData name="cedula">6732331</SimpleData>
            <SimpleData name="Cédula_1">6732331.00000000000</SimpleData>
            <SimpleData name="N_">189.00000000000</SimpleData>
            <SimpleData name="Nombres_y_">AGUSTINA CARDOZO</SimpleData>
            <SimpleData name="Sexo">Mujer</SimpleData>
            <SimpleData name="Cambio_de_">NO</SimpleData>
            <SimpleData name="Titular_se">NO</SimpleData>
            <SimpleData name="Cédula_Ti">NO</SimpleData>
            <SimpleData name="Situación">NO</SimpleData>
            <SimpleData name="Comunidad">Ind?gena</SimpleData>
            <SimpleData name="Modelo">Modelo 1</SimpleData>
            <SimpleData name="Departamen">CONCEPCION</SimpleData>
            <SimpleData name="Distrito">HORQUETA</SimpleData>
            <SimpleData name="Localidad">COM INDIG ?ANDE YVY PAVE</SimpleData>
            <SimpleData name="Teléfono">0984162256</SimpleData>
            <SimpleData name="Vivienda_L">-23.43083410000</SimpleData>
            <SimpleData name="Vivienda_1">-57.13587110000</SimpleData>
            <SimpleData name="Superficie">0.80000000000</SimpleData>
            <SimpleData name="Situaci_1">Par?metro</SimpleData>
            <SimpleData name="Plantado">Si</SimpleData>
            <SimpleData name="Parcela_La">-23.43214071000</SimpleData>
            <SimpleData name="Parcela_Lo">-57.13687594000</SimpleData>
            <SimpleData name="Grupo_Impl">G3</SimpleData>
            <SimpleData name="Grupo_de_P">J-P1-XX-XX-XX</SimpleData>
            <SimpleData name="Jornales">0.00000000000</SimpleData>
            <SimpleData name="Monto">0.00000000000</SimpleData>
            <SimpleData name="ETAPA_FAO">Mantenimiento A?o 1.1</SimpleData>
            <SimpleData name="Estado_del">Activo</SimpleData>
            <SimpleData name="Empresa">Emilio Sol?s Grance</SimpleData>
            <SimpleData name="Lote">J</SimpleData>
            <SimpleData name="Monitorear">No</SimpleData>
            <SimpleData name="Fecha_de_M">-</SimpleData>
            <SimpleData name="F__de_pren">-</SimpleData>
            <SimpleData name="Estado_FAO">Monitorear</SimpleData>
            <SimpleData name="Etapa_de_i">Mantenimiento A?o 1.1</SimpleData>
            <SimpleData name="Fecha_visi">2026/09/24</SimpleData>
            <SimpleData name="Cumple_sup">Si</SimpleData>
            <SimpleData name="Estado_mon">-</SimpleData>
            <SimpleData name="Situaci_12">-</SimpleData>
            <SimpleData name="Observaci">-</SimpleData>
            <SimpleData name="Dias_trans">10.32879629630</SimpleData>
            <SimpleData name="Prioridad">ALTA</SimpleData>
            <SimpleData name="OBJECTID_1">189</SimpleData>
          </SchemaData>
        </ExtendedData>
        <Point>
          <coordinates>
            -57.1368759427775,-23.4321407082791,0
          </coordinates>
        </Point>
      </Placemark>
      <Placemark id="Distrito_HORQUETA.7">
        <ExtendedData>
          <SchemaData schemaUrl="#Distrito_HORQUETA.schema">
            <SimpleData name="Cédula">8476495.00000000000</SimpleData>
            <SimpleData name="cedula">8476495</SimpleData>
            <SimpleData name="Cédula_1">8476495.00000000000</SimpleData>
            <SimpleData name="N_">274.00000000000</SimpleData>
            <SimpleData name="Nombres_y_">CLAUDIA  VALIENTE ROJAS</SimpleData>
            <SimpleData name="Sexo">Mujer</SimpleData>
            <SimpleData name="Cambio_de_">NO</SimpleData>
            <SimpleData name="Titular_se">NO</SimpleData>
            <SimpleData name="Cédula_Ti">NO</SimpleData>
            <SimpleData name="Situación">NO</SimpleData>
            <SimpleData name="Comunidad">Ind?gena</SimpleData>
            <SimpleData name="Modelo">Modelo 2</SimpleData>
            <SimpleData name="Departamen">CONCEPCION</SimpleData>
            <SimpleData name="Distrito">HORQUETA</SimpleData>
            <SimpleData name="Localidad">COM INDIG ?ANDE YVY PAVE</SimpleData>
            <SimpleData name="Teléfono">9827397957</SimpleData>
            <SimpleData name="Vivienda_L">-23.43116080000</SimpleData>
            <SimpleData name="Vivienda_1">-57.13779100000</SimpleData>
            <SimpleData name="Superficie">0.80000000000</SimpleData>
            <SimpleData name="Situaci_1">Parametro</SimpleData>
            <SimpleData name="Plantado">Si</SimpleData>
            <SimpleData name="Parcela_La">-23.43083462000</SimpleData>
            <SimpleData name="Parcela_Lo">-57.13619839000</SimpleData>
            <SimpleData name="Grupo_Impl">G3</SimpleData>
            <SimpleData name="Grupo_de_P">J-P2-XX-XX-XX</SimpleData>
            <SimpleData name="Jornales">0.00000000000</SimpleData>
            <SimpleData name="Monto">0.00000000000</SimpleData>
            <SimpleData name="ETAPA_FAO">Mantenimiento A?o 1.1</SimpleData>
            <SimpleData name="Estado_del">Activo</SimpleData>
            <SimpleData name="Empresa">Emilio Sol?s Grance</SimpleData>
            <SimpleData name="Lote">J</SimpleData>
            <SimpleData name="Monitorear">No</SimpleData>
            <SimpleData name="Fecha_de_M">-</SimpleData>
            <SimpleData name="F__de_pren">-</SimpleData>
            <SimpleData name="Estado_FAO">Monitorear</SimpleData>
            <SimpleData name="Etapa_de_i">Mantenimiento A?o 1.1</SimpleData>
            <SimpleData name="Fecha_visi">2026/09/24</SimpleData>
            <SimpleData name="Cumple_sup">Si</SimpleData>
            <SimpleData name="Estado_mon">-</SimpleData>
            <SimpleData name="Situaci_12">-</SimpleData>
            <SimpleData name="Observaci">-</SimpleData>
            <SimpleData name="Dias_trans">10.31508101850</SimpleData>
            <SimpleData name="Prioridad">ALTA</SimpleData>
            <SimpleData name="OBJECTID_1">274</SimpleData>
          </SchemaData>
        </ExtendedData>
        <Point>
          <coordinates>
            -57.1361983947214,-23.4308346184347,0
          </coordinates>
        </Point>
      </Placemark>
      <Placemark id="Distrito_HORQUETA.8">
        <ExtendedData>
          <SchemaData schemaUrl="#Distrito_HORQUETA.schema">
            <SimpleData name="Cédula">7484632.00000000000</SimpleData>
            <SimpleData name="cedula">7484632</SimpleData>
            <SimpleData name="Cédula_1">7484632.00000000000</SimpleData>
            <SimpleData name="N_">190.00000000000</SimpleData>
            <SimpleData name="Nombres_y_">NICOLASA GONZALEZ VILLAGRA</SimpleData>
            <SimpleData name="Sexo">Mujer</SimpleData>
            <SimpleData name="Cambio_de_">NO</SimpleData>
            <SimpleData name="Titular_se">NO</SimpleData>
            <SimpleData name="Cédula_Ti">NO</SimpleData>
            <SimpleData name="Situación">NO</SimpleData>
            <SimpleData name="Comunidad">Ind?gena</SimpleData>
            <SimpleData name="Modelo">Modelo 1</SimpleData>
            <SimpleData name="Departamen">CONCEPCION</SimpleData>
            <SimpleData name="Distrito">HORQUETA</SimpleData>
            <SimpleData name="Localidad">COM INDIG ?ANDE YVY PAVE</SimpleData>
            <SimpleData name="Teléfono">0986459372</SimpleData>
            <SimpleData name="Vivienda_L">-23.43051430000</SimpleData>
            <SimpleData name="Vivienda_1">-57.13875640000</SimpleData>
            <SimpleData name="Superficie">0.80000000000</SimpleData>
            <SimpleData name="Situaci_1">Par?metro</SimpleData>
            <SimpleData name="Plantado">Si</SimpleData>
            <SimpleData name="Parcela_La">-23.43070074000</SimpleData>
            <SimpleData name="Parcela_Lo">-57.13735478000</SimpleData>
            <SimpleData name="Grupo_Impl">G3</SimpleData>
            <SimpleData name="Grupo_de_P">J-P1-XX-XX-XX</SimpleData>
            <SimpleData name="Jornales">0.00000000000</SimpleData>
            <SimpleData name="Monto">0.00000000000</SimpleData>
            <SimpleData name="ETAPA_FAO">Mantenimiento A?o 1.1</SimpleData>
            <SimpleData name="Estado_del">Activo</SimpleData>
            <SimpleData name="Empresa">Emilio Sol?s Grance</SimpleData>
            <SimpleData name="Lote">J</SimpleData>
            <SimpleData name="Monitorear">No</SimpleData>
            <SimpleData name="Fecha_de_M">-</SimpleData>
            <SimpleData name="F__de_pren">-</SimpleData>
            <SimpleData name="Estado_FAO">Monitorear</SimpleData>
            <SimpleData name="Etapa_de_i">Mantenimiento A?o 1.1</SimpleData>
            <SimpleData name="Fecha_visi">2026/09/24</SimpleData>
            <SimpleData name="Cumple_sup">Si</SimpleData>
            <SimpleData name="Estado_mon">-</SimpleData>
            <SimpleData name="Situaci_12">-</SimpleData>
            <SimpleData name="Observaci">-</SimpleData>
            <SimpleData name="Dias_trans">10.32550925930</SimpleData>
            <SimpleData name="Prioridad">ALTA</SimpleData>
            <SimpleData name="OBJECTID_1">190</SimpleData>
          </SchemaData>
        </ExtendedData>
        <Point>
          <coordinates>
            -57.1373547795745,-23.4307007406129,0
          </coordinates>
        </Point>
      </Placemark>
    </Document>
  </Document>
</kml>
