<?xml version="1.0" encoding="UTF-8"?>
<kml xmlns="http://www.opengis.net/kml/2.2">
  <Document id="root_doc">
    <Schema id="Distrito_CRUCE_LIBERACION.schema">
      <SimpleField name="Cédula" type="double"/>
      <SimpleField name="cedula" type="string"/>
      <SimpleField name="Cédula_1" type="double"/>
      <SimpleField name="N_" type="double"/>
      <SimpleField name="Nombres_y_" type="string"/>
      <SimpleField name="Sexo" type="string"/>
      <SimpleField name="Cambio_de_" type="string"/>
      <SimpleField name="Titular_se" type="string"/>
      <SimpleField name="Cédula_Ti" type="string"/>
      <SimpleField name="Situación" type="string"/>
      <SimpleField name="Comunidad" type="string"/>
      <SimpleField name="Modelo" type="string"/>
      <SimpleField name="Departamen" type="string"/>
      <SimpleField name="Distrito" type="string"/>
      <SimpleField name="Localidad" type="string"/>
      <SimpleField name="Teléfono" type="string"/>
      <SimpleField name="Vivienda_L" type="double"/>
      <SimpleField name="Vivienda_1" type="double"/>
      <SimpleField name="Superficie" type="double"/>
      <SimpleField name="Situaci_1" type="string"/>
      <SimpleField name="Plantado" type="string"/>
      <SimpleField name="Parcela_La" type="double"/>
      <SimpleField name="Parcela_Lo" type="double"/>
      <SimpleField name="Grupo_Impl" type="string"/>
      <SimpleField name="Grupo_de_P" type="string"/>
      <SimpleField name="Jornales" type="double"/>
      <SimpleField name="Monto" type="double"/>
      <SimpleField name="ETAPA_FAO" type="string"/>
      <SimpleField name="Estado_del" type="string"/>
      <SimpleField name="Empresa" type="string"/>
      <SimpleField name="Lote" type="string"/>
      <SimpleField name="Monitorear" type="string"/>
      <SimpleField name="Fecha_de_M" type="string"/>
      <SimpleField name="F__de_pren" type="string"/>
      <SimpleField name="Estado_FAO" type="string"/>
      <SimpleField name="Etapa_de_i" type="string"/>
      <SimpleField name="Fecha_visi" type="string"/>
      <SimpleField name="Cumple_sup" type="string"/>
      <SimpleField name="Estado_mon" type="string"/>
      <SimpleField name="Situaci_12" type="string"/>
      <SimpleField name="Observaci" type="string"/>
      <SimpleField name="Dias_trans" type="double"/>
      <SimpleField name="Prioridad" type="string"/>
      <SimpleField name="OBJECTID_1" type="int"/>
    </Schema>
    <Document id="Distrito_CRUCE_LIBERACION">
      <name>Distrito_CRUCE LIBERACION</name>
      <Placemark id="Distrito_CRUCE_LIBERACION.1">
        <ExtendedData>
          <SchemaData schemaUrl="#Distrito_CRUCE_LIBERACION.schema">
            <SimpleData name="Cédula">6296640.00000000000</SimpleData>
            <SimpleData name="cedula">6296640</SimpleData>
            <SimpleData name="Cédula_1">6296640.00000000000</SimpleData>
            <SimpleData name="N_">279.00000000000</SimpleData>
            <SimpleData name="Nombres_y_">DANIA ROBLES ROJAS</SimpleData>
            <SimpleData name="Sexo">Mujer</SimpleData>
            <SimpleData name="Cambio_de_">NO</SimpleData>
            <SimpleData name="Titular_se">NO</SimpleData>
            <SimpleData name="Cédula_Ti">NO</SimpleData>
            <SimpleData name="Situación">NO</SimpleData>
            <SimpleData name="Comunidad">Campesina</SimpleData>
            <SimpleData name="Modelo">Modelo 5</SimpleData>
            <SimpleData name="Departamen">SAN PEDRO</SimpleData>
            <SimpleData name="Distrito">CRUCE LIBERACION</SimpleData>
            <SimpleData name="Localidad">SANTA LIBRADA</SimpleData>
            <SimpleData name="Teléfono">974155903</SimpleData>
            <SimpleData name="Vivienda_L">-24.20270280000</SimpleData>
            <SimpleData name="Vivienda_1">-56.47364140000</SimpleData>
            <SimpleData name="Superficie">0.70000000000</SimpleData>
            <SimpleData name="Situaci_1">Parametro</SimpleData>
            <SimpleData name="Plantado">Si</SimpleData>
            <SimpleData name="Parcela_La">-24.20852156000</SimpleData>
            <SimpleData name="Parcela_Lo">-56.47681916000</SimpleData>
            <SimpleData name="Grupo_Impl">G3</SimpleData>
            <SimpleData name="Grupo_de_P">I-P5-XX-XX-XX</SimpleData>
            <SimpleData name="Jornales">0.00000000000</SimpleData>
            <SimpleData name="Monto">0.00000000000</SimpleData>
            <SimpleData name="ETAPA_FAO">Mantenimiento A?o 1.1</SimpleData>
            <SimpleData name="Estado_del">Activo</SimpleData>
            <SimpleData name="Empresa">Emilio Sol?s Grance</SimpleData>
            <SimpleData name="Lote">I</SimpleData>
            <SimpleData name="Monitorear">No</SimpleData>
            <SimpleData name="Fecha_de_M">-</SimpleData>
            <SimpleData name="F__de_pren">-</SimpleData>
            <SimpleData name="Estado_FAO">Monitorear</SimpleData>
            <SimpleData name="Etapa_de_i">Mantenimiento A?o 1.1</SimpleData>
            <SimpleData name="Fecha_visi">2026/09/04</SimpleData>
            <SimpleData name="Cumple_sup">Si</SimpleData>
            <SimpleData name="Estado_mon">-</SimpleData>
            <SimpleData name="Situaci_12">-</SimpleData>
            <SimpleData name="Observaci">-</SimpleData>
            <SimpleData name="Dias_trans">30.42509259260</SimpleData>
            <SimpleData name="Prioridad">ALTA</SimpleData>
            <SimpleData name="OBJECTID_1">279</SimpleData>
          </SchemaData>
        </ExtendedData>
        <Point>
          <coordinates>
            -56.4768191551397,-24.2085215647895,0
          </coordinates>
        </Point>
      </Placemark>
      <Placemark id="Distrito_CRUCE_LIBERACION.2">
        <ExtendedData>
          <SchemaData schemaUrl="#Distrito_CRUCE_LIBERACION.schema">
            <SimpleData name="Cédula">4383464.00000000000</SimpleData>
            <SimpleData name="cedula">4383464</SimpleData>
            <SimpleData name="Cédula_1">4383464.00000000000</SimpleData>
            <SimpleData name="N_">202.00000000000</SimpleData>
            <SimpleData name="Nombres_y_">PERLA ROJAS CARDOZO</SimpleData>
            <SimpleData name="Sexo">Mujer</SimpleData>
            <SimpleData name="Cambio_de_">NO</SimpleData>
            <SimpleData name="Titular_se">NO</SimpleData>
            <SimpleData name="Cédula_Ti">NO</SimpleData>
            <SimpleData name="Situación">NO</SimpleData>
            <SimpleData name="Comunidad">Campesina</SimpleData>
            <SimpleData name="Modelo">Modelo 1</SimpleData>
            <SimpleData name="Departamen">SAN PEDRO</SimpleData>
            <SimpleData name="Distrito">CRUCE LIBERACION</SimpleData>
            <SimpleData name="Localidad">SAN JORGE</SimpleData>
            <SimpleData name="Teléfono">0972261538</SimpleData>
            <SimpleData name="Vivienda_L">-24.15477530000</SimpleData>
            <SimpleData name="Vivienda_1">-56.44209110000</SimpleData>
            <SimpleData name="Superficie">0.80000000000</SimpleData>
            <SimpleData name="Situaci_1">Par?metro</SimpleData>
            <SimpleData name="Plantado">Si</SimpleData>
            <SimpleData name="Parcela_La">-24.15547880000</SimpleData>
            <SimpleData name="Parcela_Lo">-56.44516206000</SimpleData>
            <SimpleData name="Grupo_Impl">G3</SimpleData>
            <SimpleData name="Grupo_de_P">I-P1-XX-XX-XX</SimpleData>
            <SimpleData name="Jornales">0.00000000000</SimpleData>
            <SimpleData name="Monto">0.00000000000</SimpleData>
            <SimpleData name="ETAPA_FAO">Mantenimiento A?o 1.1</SimpleData>
            <SimpleData name="Estado_del">Activo</SimpleData>
            <SimpleData name="Empresa">Emilio Sol?s Grance</SimpleData>
            <SimpleData name="Lote">I</SimpleData>
            <SimpleData name="Monitorear">No</SimpleData>
            <SimpleData name="Fecha_de_M">-</SimpleData>
            <SimpleData name="F__de_pren">-</SimpleData>
            <SimpleData name="Estado_FAO">Monitorear</SimpleData>
            <SimpleData name="Etapa_de_i">Mantenimiento A?o 1.1</SimpleData>
            <SimpleData name="Fecha_visi">2026/09/29</SimpleData>
            <SimpleData name="Cumple_sup">Si</SimpleData>
            <SimpleData name="Estado_mon">-</SimpleData>
            <SimpleData name="Situaci_12">-</SimpleData>
            <SimpleData name="Observaci">-</SimpleData>
            <SimpleData name="Dias_trans">5.21649305556</SimpleData>
            <SimpleData name="Prioridad">ALTA</SimpleData>
            <SimpleData name="OBJECTID_1">202</SimpleData>
          </SchemaData>
        </ExtendedData>
        <Point>
          <coordinates>
            -56.4451620581354,-24.1554788041686,0
          </coordinates>
        </Point>
      </Placemark>
      <Placemark id="Distrito_CRUCE_LIBERACION.3">
        <ExtendedData>
          <SchemaData schemaUrl="#Distrito_CRUCE_LIBERACION.schema">
            <SimpleData name="Cédula">4440114.00000000000</SimpleData>
            <SimpleData name="cedula">4440114</SimpleData>
            <SimpleData name="Cédula_1">4440114.00000000000</SimpleData>
            <SimpleData name="N_">201.00000000000</SimpleData>
            <SimpleData name="Nombres_y_">JULIA LOPEZ LOPEZ</SimpleData>
            <SimpleData name="Sexo">Mujer</SimpleData>
            <SimpleData name="Cambio_de_">NO</SimpleData>
            <SimpleData name="Titular_se">NO</SimpleData>
            <SimpleData name="Cédula_Ti">NO</SimpleData>
            <SimpleData name="Situación">NO</SimpleData>
            <SimpleData name="Comunidad">Campesina</SimpleData>
            <SimpleData name="Modelo">Modelo 4</SimpleData>
            <SimpleData name="Departamen">SAN PEDRO</SimpleData>
            <SimpleData name="Distrito">CRUCE LIBERACION</SimpleData>
            <SimpleData name="Localidad">BARRIO SANTA LUCIA</SimpleData>
            <SimpleData name="Teléfono">0981045695</SimpleData>
            <SimpleData name="Vivienda_L">-24.17648630000</SimpleData>
            <SimpleData name="Vivienda_1">-56.47251420000</SimpleData>
            <SimpleData name="Superficie">0.70000000000</SimpleData>
            <SimpleData name="Situaci_1">Par?metro</SimpleData>
            <SimpleData name="Plantado">Si</SimpleData>
            <SimpleData name="Parcela_La">-24.17560200000</SimpleData>
            <SimpleData name="Parcela_Lo">-56.47412392000</SimpleData>
            <SimpleData name="Grupo_Impl">G3</SimpleData>
            <SimpleData name="Grupo_de_P">I-P5-XX-XX-XX</SimpleData>
            <SimpleData name="Jornales">0.00000000000</SimpleData>
            <SimpleData name="Monto">0.00000000000</SimpleData>
            <SimpleData name="ETAPA_FAO">Mantenimiento A?o 1.1</SimpleData>
            <SimpleData name="Estado_del">Activo</SimpleData>
            <SimpleData name="Empresa">Emilio Sol?s Grance</SimpleData>
            <SimpleData name="Lote">I</SimpleData>
            <SimpleData name="Monitorear">No</SimpleData>
            <SimpleData name="Fecha_de_M">-</SimpleData>
            <SimpleData name="F__de_pren">-</SimpleData>
            <SimpleData name="Estado_FAO">Monitorear</SimpleData>
            <SimpleData name="Etapa_de_i">Mantenimiento A?o 1.1</SimpleData>
            <SimpleData name="Fecha_visi">2026/09/21</SimpleData>
            <SimpleData name="Cumple_sup">Si</SimpleData>
            <SimpleData name="Estado_mon">-</SimpleData>
            <SimpleData name="Situaci_12">-</SimpleData>
            <SimpleData name="Observaci">-</SimpleData>
            <SimpleData name="Dias_trans">13.49126157410</SimpleData>
            <SimpleData name="Prioridad">ALTA</SimpleData>
            <SimpleData name="OBJECTID_1">201</SimpleData>
          </SchemaData>
        </ExtendedData>
        <Point>
          <coordinates>
            -56.4741239177693,-24.1756020035003,0
          </coordinates>
        </Point>
      </Placemark>
    </Document>
  </Document>
</kml>
